OBJECT_NAME,OBJECT_ID,EPOCH,MEAN_MOTION,ECCENTRICITY,INCLINATION,RA_OF_ASC_NODE,ARG_OF_PERICENTER,MEAN_ANOMALY,EPHEMERIS_TYPE,CLASSIFICATION_TYPE,NORAD_CAT_ID,ELEMENT_SET_NO,REV_AT_EPOCH,BSTAR,MEAN_MOTION_DOT,MEAN_MOTION_DDOT
TJS-14,2025-017A,2026-07-04T23:54:13.573152,1.00272288,.00014586,0.7445,296.8221,289.1748,73.9341,0,U,62804,999,544,0,.128E-5,0
SPAINSAT NG I,2025-021A,2026-07-02T19:15:06.713856,1.00268491,.00005769,0.0193,15.3608,142.6716,80.5656,0,U,62852,999,414,0,.162E-5,0
QZS-6 (MICHIBIKI-6),2025-023A,2026-07-04T20:42:11.270016,1.00270764,.00020087,0.0390,287.4941,192.1092,204.3412,0,U,62876,999,512,0,-.22E-5,0
ZHONGXING-10R,2025-036A,2026-07-04T22:12:46.016640,1.00269677,.000417,0.0515,232.7310,276.2354,217.6818,0,U,63075,999,513,0,-.339E-5,0
TJS-15,2025-045A,2026-07-02T18:13:22.827936,1.00274962,.0003804,0.3058,85.5733,301.9252,260.9777,0,U,63157,999,491,0,-.254E-5,0
TIANLIAN 2-04,2025-062A,2026-07-05T00:23:49.513920,1.00270802,.00312106,4.3313,274.1776,9.6837,85.1681,0,U,63361,999,478,0,-.121E-5,0
TJS-16,2025-064A,2026-07-02T16:45:57.134016,1.00272015,.0002939,1.1359,81.3849,299.1841,312.2806,0,U,63397,999,454,0,-.95E-6,0
TJS-17,2025-073A,2026-07-02T18:36:52.481952,1.00271016,.0001564,1.1020,82.5843,315.8143,326.1705,0,U,63524,999,444,0,-.59E-6,0
TIANLIAN 2-05,2025-084A,2026-07-04T22:32:16.150848,1.00269158,.00030802,4.4088,279.6252,152.4261,209.3829,0,U,63662,999,456,0,.138E-5,0
TJS-19,2025-097A,2026-07-02T18:04:31.516320,1.00271699,.0003438,3.2611,317.6772,238.0724,137.4555,0,U,63924,999,430,0,-.263E-5,0
CHINASAT 3B,2025-106A,2026-07-04T21:31:38.232192,1.00282752,.000404,0.0413,190.5871,312.7273,269.8013,0,U,64062,999,423,0,-.3E-6,0
SXM-10,2025-122A,2026-07-04T11:01:38.783424,1.00272773,.0001755,0.0168,34.6152,336.2648,320.8416,0,U,64290,999,385,0,-.5E-7,0
COSMOS 2589,2025-131A,2026-07-02T18:07:05.854368,1.00272301,.0000936,0.0398,102.1054,108.8979,79.5624,0,U,64467,999,371,0,-.28E-5,0
CHINASAT 9C,2025-132A,2026-07-04T20:00:51.820704,1.00273051,.00031782,0.0458,233.1074,233.3049,208.8534,0,U,64470,999,432,0,-.235E-5,0
MTG-S1,2025-143A,2026-07-04T20:43:48.623808,1.00272407,.00030992,0.5901,342.6521,262.4706,348.2447,0,U,64723,999,359,0,.5E-7,0
DROR 1,2025-148A,2026-07-04T20:42:41.231808,1.00272390,.00023224,0.0161,28.0198,12.5206,188.9901,0,U,64784,999,347,0,-.21E-6,0
SHIYAN-29,2025-196A,2026-07-04T16:59:16.429920,1.00280541,.00134366,28.8394,18.3144,175.4730,78.8864,0,U,65486,999,305,0,-.268E-5,0
NUSANTARA LIMA (NUSANTARA 5),2025-205A,2026-07-04T21:16:02.228160,1.00272076,.00006037,0.0060,169.1348,336.6728,208.9477,0,U,65588,999,289,0,-.345E-5,0
TJS-20,2025-238A,2026-07-04T21:33:34.099776,1.00272566,.00046624,5.4317,299.4739,173.3873,195.8190,0,U,66142,999,251,0,.39E-6,0
CMS-03 (GSAT-7R),2025-249B,2026-07-04T21:47:54.013920,1.00271745,.00018965,0.0520,255.9075,179.3963,248.5598,0,U,66311,999,252,0,-.64E-6,0
VIASAT-3 F2,2025-261A,2026-07-04T20:21:20.450304,1.00273171,.00008383,0.0243,193.5267,6.2058,309.4859,0,U,66454,999,297,0,-.221E-5,0
SHIJIAN-28 (SJ-28),2025-277A,2026-07-04T22:06:42.568992,1.00273334,.00008627,4.4948,271.8472,40.0184,59.5957,0,U,66549,999,233,0,-.346E-5,0
TJS-22,2025-290A,2026-07-04T19:52:57.382752,1.00273952,.00022819,1.4861,286.7887,320.1884,40.5968,0,U,66990,999,220,0,.6E-7,0
TJS-23,2025-306A,2026-07-04T13:18:17.491968,1.00272954,.00047277,5.5486,297.3981,187.1461,173.0609,0,U,67226,999,206,0,.3E-6,0
FENGYUN 4C,2025-312A,2026-07-04T12:48:34.778304,1.00271537,.00005422,0.0422,176.2327,12.1004,59.3551,0,U,67246,999,195,0,-.31E-5,0
SHIJIAN-29A (SJ-29A),2025-315A,2026-07-05T00:08:18.629952,1.00271030,.00034803,3.4403,94.6939,28.2742,235.2476,0,U,67302,999,179,0,-.55E-6,0
SHIJIAN-29B (SJ-29B),2025-315C,2026-07-05T00:08:18.691296,1.00272460,.00048111,3.4393,94.6868,45.6318,217.9458,0,U,67403,999,186,0,-.56E-6,0
ELEKTRO-L 5,2026-028A,2026-07-04T00:07:41.027808,1.00272036,.00018658,0.2232,319.1835,180.3843,220.4440,0,U,67756,999,142,0,-.86E-6,0
JAM-E JAM 1,2026-028B,2026-07-04T22:41:16.742688,1.00269441,.00013334,0.2260,308.0551,334.4677,14.7742,0,U,67757,999,129,0,.169E-5,0
ECHOSTAR 25,2026-045A,2026-07-04T13:21:53.442720,1.00271095,.0001683,0.0217,39.4582,78.1383,255.4537,0,U,68126,999,116,0,0,0
TJS-24,2026-116A,2026-07-05T00:12:08.945568,1.00273470,.00001663,0.0526,99.5528,10.8623,265.9255,0,U,69235,999,40,0,-.219E-5,0
