TJS-14                  
1 62804U 25017A   26185.99599043  .00000128  00000+0  00000+0 0  9994
2 62804   0.7445 296.8221 0001458 289.1748  73.9341  1.00272288  5449
SPAINSAT NG I           
1 62852U 25021A   26183.80216104  .00000162  00000+0  00000+0 0  9992
2 62852   0.0193  15.3608 0000576 142.6716  80.5656  1.00268491  4146
QZS-6 (MICHIBIKI-6)     
1 62876U 25023A   26185.86263044 -.00000220  00000+0  00000+0 0  9999
2 62876   0.0390 287.4941 0002008 192.1092 204.3412  1.00270764  5123
ZHONGXING-10R           
1 63075U 25036A   26185.92553260 -.00000339  00000+0  00000+0 0  9995
2 63075   0.0515 232.7310 0004170 276.2354 217.6818  1.00269677  5133
TJS-15                  
1 63157U 25045A   26183.75929199 -.00000254  00000+0  00000+0 0  9999
2 63157   0.3058  85.5733 0003804 301.9252 260.9777  1.00274962  4911
TIANLIAN 2-04           
1 63361U 25062A   26186.01654530 -.00000121  00000+0  00000+0 0  9994
2 63361   4.3313 274.1776 0031210   9.6837  85.1681  1.00270802  4787
TJS-16                  
1 63397U 25064A   26183.69857794 -.00000095  00000+0  00000+0 0  9993
2 63397   1.1359  81.3849 0002939 299.1841 312.2806  1.00272015  4542
TJS-17                  
1 63524U 25073A   26183.77560743 -.00000059  00000+0  00000+0 0  9999
2 63524   1.1020  82.5843 0001564 315.8143 326.1705  1.00271016  4441
TIANLIAN 2-05           
1 63662U 25084A   26185.93907582  .00000138  00000+0  00000+0 0  9997
2 63662   4.4088 279.6252 0003080 152.4261 209.3829  1.00269158  4564
TJS-19                  
1 63924U 25097A   26183.75314255 -.00000263  00000+0  00000+0 0  9999
2 63924   3.2611 317.6772 0003438 238.0724 137.4555  1.00271699  4308
CHINASAT 3B             
1 64062U 25106A   26185.89697028 -.00000030  00000+0  00000+0 0  9995
2 64062   0.0413 190.5871 0004040 312.7273 269.8013  1.00282752  4237
SXM-10                  
1 64290U 25122A   26185.45947666 -.00000005  00000+0  00000+0 0  9996
2 64290   0.0168  34.6152 0001755 336.2648 320.8416  1.00272773  3858
COSMOS 2589             
1 64467U 25131A   26183.75492887 -.00000280  00000+0  00000+0 0  9998
2 64467   0.0398 102.1054 0000936 108.8979  79.5624  1.00272301  3712
CHINASAT 9C             
1 64470U 25132A   26185.83393311 -.00000235  00000+0  00000+0 0  9996
2 64470   0.0458 233.1074 0003178 233.3049 208.8534  1.00273051  4321
MTG-S1                  
1 64723U 25143A   26185.86375722  .00000005  00000+0  00000+0 0  9992
2 64723   0.5901 342.6521 0003099 262.4706 348.2447  1.00272407  3592
DROR 1                  
1 64784U 25148A   26185.86297722 -.00000021  00000+0  00000+0 0  9996
2 64784   0.0161  28.0198 0002322  12.5206 188.9901  1.00272390  3476
SHIYAN-29               
1 65486U 25196A   26185.70782905 -.00000268  00000+0  00000+0 0  9997
2 65486  28.8394  18.3144 0013436 175.4730  78.8864  1.00280541  3050
NUSANTARA LIMA (NUSANT*)
1 65588U 25205A   26185.88613690 -.00000345  00000+0  00000+0 0  9990
2 65588   0.0060 169.1348 0000603 336.6728 208.9477  1.00272076  2897
TJS-20                  
1 66142U 25238A   26185.89831134  .00000039  00000+0  00000+0 0  9998
2 66142   5.4317 299.4739 0004662 173.3873 195.8190  1.00272566  2514
CMS-03 (GSAT-7R)        
1 66311U 25249B   26185.90826405 -.00000064  00000+0  00000+0 0  9994
2 66311   0.0520 255.9075 0001896 179.3963 248.5598  1.00271745  2528
VIASAT-3 F2             
1 66454U 25261A   26185.84815336 -.00000221  00000+0  00000+0 0  9995
2 66454   0.0243 193.5267 0000838   6.2058 309.4859  1.00273171  2977
SHIJIAN-28 (SJ-28)      
1 66549U 25277A   26185.92132603 -.00000346  00000+0  00000+0 0  9993
2 66549   4.4948 271.8472 0000862  40.0184  59.5957  1.00273334  2336
TJS-22                  
1 66990U 25290A   26185.82844193  .00000006  00000+0  00000+0 0  9993
2 66990   1.4861 286.7887 0002281 320.1884  40.5968  1.00273952  2202
TJS-23                  
1 67226U 25306A   26185.55436912  .00000030  00000+0  00000+0 0  9997
2 67226   5.5486 297.3981 0004727 187.1461 173.0609  1.00272954  2064
FENGYUN 4C              
1 67246U 25312A   26185.53373586 -.00000310  00000+0  00000+0 0  9993
2 67246   0.0422 176.2327 0000542  12.1004  59.3551  1.00271537  1951
SHIJIAN-29A (SJ-29A)    
1 67302U 25315A   26186.00577118 -.00000055  00000+0  00000+0 0  9995
2 67302   3.4403  94.6939 0003480  28.2742 235.2476  1.00271030  1794
SHIJIAN-29B (SJ-29B)    
1 67403U 25315C   26186.00577189 -.00000056  00000+0  00000+0 0  9996
2 67403   3.4393  94.6868 0004811  45.6318 217.9458  1.00272460  1869
ELEKTRO-L 5             
1 67756U 26028A   26185.00533597 -.00000086  00000+0  00000+0 0  9996
2 67756   0.2232 319.1835 0001865 180.3843 220.4440  1.00272036  1423
JAM-E JAM 1             
1 67757U 26028B   26185.94533267  .00000169  00000+0  00000+0 0  9995
2 67757   0.2260 308.0551 0001333 334.4677  14.7742  1.00269441  1294
ECHOSTAR 25             
1 68126U 26045A   26185.55686855  .00000000  00000+0  00000+0 0  9998
2 68126   0.0217  39.4582 0001683  78.1383 255.4537  1.00271095  1168
TJS-24                  
1 69235U 26116A   26186.00843687 -.00000219  00000+0  00000+0 0  9991
2 69235   0.0526  99.5528 0000166  10.8623 265.9255  1.00273470   403
